[{"OBJECT_NAME":"STARLINK-35324","OBJECT_ID":"2025-221R","EPOCH":"2026-03-09T11:12:23.129568","MEAN_MOTION":15.30196161,"ECCENTRICITY":0.00011692,"INCLINATION":53.159,"RA_OF_ASC_NODE":89.7805,"ARG_OF_PERICENTER":92.1419,"MEAN_ANOMALY":267.9715,"EPHEMERIS_TYPE":0,"CLASSIFICATION_TYPE":"U","NORAD_CAT_ID":65838,"ELEMENT_SET_NO":999,"REV_AT_EPOCH":2469,"BSTAR":0.0012222047,"MEAN_MOTION_DOT":0.0003601,"MEAN_MOTION_DDOT":0},{"OBJECT_NAME":"CERISE","OBJECT_ID":"1995-033B","EPOCH":"2026-03-09T23:11:27.589056","MEAN_MOTION":15.32047731,"ECCENTRICITY":0.00057118,"INCLINATION":98.325,"RA_OF_ASC_NODE":273.5192,"ARG_OF_PERICENTER":211.8754,"MEAN_ANOMALY":148.214,"EPHEMERIS_TYPE":0,"CLASSIFICATION_TYPE":"U","NORAD_CAT_ID":23606,"ELEMENT_SET_NO":999,"REV_AT_EPOCH":66468,"BSTAR":0.00062940675,"MEAN_MOTION_DOT":0.00019422,"MEAN_MOTION_DDOT":0}]
